[{"OBJECT_NAME":"KUIPER-00130","OBJECT_ID":"2025-228N","EPOCH":"2026-03-09T23:25:45.285312","MEAN_MOTION":14.79902266,"ECCENTRICITY":6.059e-5,"INCLINATION":51.903,"RA_OF_ASC_NODE":349.3445,"ARG_OF_PERICENTER":87.581,"MEAN_ANOMALY":272.5222,"EPHEMERIS_TYPE":0,"CLASSIFICATION_TYPE":"U","NORAD_CAT_ID":65959,"ELEMENT_SET_NO":999,"REV_AT_EPOCH":1370,"BSTAR":0.00026674985,"MEAN_MOTION_DOT":1.812e-5,"MEAN_MOTION_DDOT":0},{"OBJECT_NAME":"RESURS O1 DEB","OBJECT_ID":"1994-074C","EPOCH":"2026-03-09T22:03:24.538464","MEAN_MOTION":14.59664665,"ECCENTRICITY":0.01176342,"INCLINATION":97.9654,"RA_OF_ASC_NODE":81.1403,"ARG_OF_PERICENTER":28.9875,"MEAN_ANOMALY":41.4424,"EPHEMERIS_TYPE":0,"CLASSIFICATION_TYPE":"U","NORAD_CAT_ID":23344,"ELEMENT_SET_NO":999,"REV_AT_EPOCH":65875,"BSTAR":0.00041976407,"MEAN_MOTION_DOT":2.153e-5,"MEAN_MOTION_DDOT":0}]
